NORAD_CAT_ID,OBJECT_NAME,OBJECT_TYPE,EPOCH,MEAN_MOTION,ECCENTRICITY,INCLINATION,RA_OF_ASC_NODE,ARG_OF_PERICENTER,MEAN_ANOMALY,BSTAR,MEAN_MOTION_DOT,MEAN_MOTION_DDOT,TLE_LINE0,TLE_LINE1,TLE_LINE2,SEMIMAJOR_AXIS,PERIOD,APOGEE,PERIGEE,DECAYED
52569.0,STARLINK-3927,PAYLOAD,2024-02-05 11:33:52,15.08843455,0.0001359,53.2181,305.2926,91.5503,268.5645,5.3459e-05,5.63e-06,0.0,0 STARLINK-3927,1 52569U 22051AN  24036.48185983  .00000563  00000-0  53459-4 0  9992,2 52569  53.2181 305.2926 0001359  91.5503 268.5645 15.08843455 96360,6917.87,95.437,540.675,538.795,0.0
52569.0,STARLINK-3927,PAYLOAD,2024-02-05 22:41:34,15.08848392,0.0001428,53.218,303.211,92.0233,268.0922,3.1693e-05,2.17e-06,0.0,0 STARLINK-3927,1 52569U 22051AN  24036.94553753  .00000217  00000-0  31693-4 0  9999,2 52569  53.2180 303.2110 0001428  92.0233 268.0922 15.08848392 96431,6917.855,95.437,540.708,538.732,0.0
52569.0,STARLINK-3927,PAYLOAD,2024-02-06 22:32:21,15.088446,0.0001422,53.2179,298.7501,91.223,268.8925,5.6301e-05,6.08e-06,0.0,0 STARLINK-3927,1 52569U 22051AN  24037.93913774  .00000608  00000-0  56301-4 0  9999,2 52569  53.2179 298.7501 0001422  91.2230 268.8925 15.08844600 96588,6917.866,95.437,540.715,538.748,0.0
52569.0,STARLINK-3927,PAYLOAD,2024-02-07 00:07:44,15.08845338,0.0001429,53.218,298.4529,90.1301,269.9855,6.0295e-05,6.72e-06,0.0,0 STARLINK-3927,1 52569U 22051AN  24038.00537700  .00000672  00000-0  60295-4 0  9997,2 52569  53.2180 298.4529 0001429  90.1301 269.9855 15.08845338 96663,6917.864,95.437,540.718,538.741,0.0
52569.0,STARLINK-3927,PAYLOAD,2024-02-07 09:40:03,15.08838666,0.0001372,53.2177,296.6665,80.6358,279.4789,1.107e-05,-1.12e-06,0.0,0 STARLINK-3927,1 52569U 22051AN  24038.40282231 -.00000112  00000-0  11070-4 0  9994,2 52569  53.2177 296.6665 0001372  80.6358 279.4789 15.08838666 96728,6917.884,95.438,540.699,538.8,0.0
52569.0,STARLINK-3927,PAYLOAD,2024-02-07 17:37:00,15.08830223,0.0001324,53.2187,295.1869,88.8357,271.2787,1.0475e-05,-1.21e-06,0.0,0 STARLINK-3927,1 52569U 22051AN  24038.73402861 -.00000121  00000-0  10475-4 0  9991,2 52569  53.2187 295.1869 0001324  88.8357 271.2787 15.08830223 96779,6917.91,95.438,540.691,538.859,0.0
52569.0,STARLINK-3927,PAYLOAD,2024-02-07 22:23:09,15.08831017,0.0001363,53.2188,294.294,94.1183,265.9965,5.3459e-07,-2.79e-06,0.0,0 STARLINK-3927,1 52569U 22051AN  24038.93274878 -.00000279  00000-0  53459-6 0  9993,2 52569  53.2188 294.2940 0001363  94.1183 265.9965 15.08831017 96736,6917.908,95.438,540.716,538.83,0.0
52569.0,STARLINK-3927,PAYLOAD,2024-02-08 09:30:51,15.08836128,0.0001183,53.2165,292.2091,92.7644,267.3483,2.2235e-05,6.6e-07,0.0,0 STARLINK-3927,1 52569U 22051AN  24039.39642685  .00000066  00000-0  22235-4 0  9998,2 52569  53.2165 292.2091 0001183  92.7644 267.3483 15.08836128 96809,6917.892,95.438,540.576,538.939,0.0
52569.0,STARLINK-3927,PAYLOAD,2024-02-08 22:13:56,15.08834161,0.0001387,53.2181,289.8358,103.5997,256.515,-4.5163e-05,-1.006e-05,0.0,0 STARLINK-3927,1 52569U 22051AN  24039.92635346 -.00001006  00000-0 -45163-4 0  9995,2 52569  53.2181 289.8358 0001387 103.5997 256.5150 15.08834161 96887,6917.898,95.438,540.723,538.804,0.0
52569.0,STARLINK-3927,PAYLOAD,2024-02-10 01:15:30,15.08829755,0.0001331,53.2176,284.7756,90.0478,270.0667,0.00039732,6.039e-05,0.0,0 STARLINK-3927,1 52569U 22051AN  24041.05243117  .00006039  00000-0  39732-3 0  9996,2 52569  53.2176 284.7756 0001331  90.0478 270.0667 15.08829755 97125,6917.912,95.438,540.697,538.856,0.0
52569.0,STARLINK-3927,PAYLOAD,2024-02-10 20:20:06,15.08849796,0.0001357,53.2171,281.2075,81.1535,278.9611,0.00025621,3.793e-05,0.0,0 STARLINK-3927,1 52569U 22051AN  24041.84730094  .00003793  00000-0  25621-3 0  9994,2 52569  53.2171 281.2075 0001357  81.1535 278.9611 15.08849796 97245,6917.85,95.437,540.654,538.777,0.0
52569.0,STARLINK-3927,PAYLOAD,2024-02-10 21:55:25,15.08913828,0.0001716,53.2167,280.9098,115.0989,245.0181,0.00074675,0.0001164,0.0,0 STARLINK-3927,1 52569U 22051AN  24041.91349099  .00011640  00000-0  74675-3 0  9996,2 52569  53.2167 280.9098 0001716 115.0989 245.0181 15.08913828 97188,6917.655,95.433,540.707,538.333,0.0
52569.0,STARLINK-3927,PAYLOAD,2024-02-10 23:30:49,15.08905529,0.0001901,53.2167,280.6142,67.2064,292.9129,0.00064839,0.00010065,0.0,0 STARLINK-3927,1 52569U 22051AN  24041.97973976  .00010065  00000-0  64839-3 0  9990,2 52569  53.2167 280.6142 0001901  67.2064 292.9129 15.08905529 97264,6917.68,95.433,540.86,538.23,0.0
52569.0,STARLINK-3927,PAYLOAD,2024-02-11 20:10:54,15.0883871,0.0001602,53.2166,276.7466,85.4208,274.6967,-5.7524e-05,-1.203e-05,0.0,0 STARLINK-3927,1 52569U 22051AN  24042.84090922 -.00001203  00000-0 -57524-4 0  9998,2 52569  53.2166 276.7466 0001602  85.4208 274.6967 15.08838710 97396,6917.884,95.438,540.858,538.641,0.0
52569.0,STARLINK-3927,PAYLOAD,2024-02-11 21:46:17,15.0883754,0.0001614,53.2173,276.4485,102.9422,257.175,-9.394e-05,-1.783e-05,0.0,0 STARLINK-3927,1 52569U 22051AN  24042.90714890 -.00001783  00000-0 -93940-4 0  9997,2 52569  53.2173 276.4485 0001614 102.9422 257.1750 15.08837540 97338,6917.888,95.438,540.869,538.636,0.0
52569.0,STARLINK-3927,PAYLOAD,2024-02-12 18:26:18,15.08874583,0.0001761,53.2165,272.5843,121.7937,238.3227,-0.00060151,-9.858e-05,0.0,0 STARLINK-3927,1 52569U 22051AN  24043.76826389 -.00009858  00000-0 -60151-3 0  9997,2 52569  53.2165 272.5843 0001761 121.7937 238.3227 15.08874583 97537,6917.775,95.435,540.858,538.421,0.0
52569.0,STARLINK-3927,PAYLOAD,2024-02-12 21:37:04,15.08872603,0.0001823,53.2174,271.9891,113.2474,246.871,-0.00059478,-9.75e-05,0.0,0 STARLINK-3927,1 52569U 22051AN  24043.90074347 -.00009750  00000-0 -59478-3 0  9993,2 52569  53.2174 271.9891 0001823 113.2474 246.8710 15.08872603 97480,6917.781,95.435,540.907,538.385,0.0
52569.0,STARLINK-3927,PAYLOAD,2024-02-13 15:06:19,15.08828866,0.0001561,53.2157,268.717,104.2653,255.8512,0.00013494,1.86e-05,0.0,0 STARLINK-3927,1 52569U 22051AN  24044.62939013  .00001860  00000-0  13494-3 0  9993,2 52569  53.2157 268.7170 0001561 104.2653 255.8512 15.08828866 97597,6917.914,95.438,540.859,538.7,0.0
52569.0,STARLINK-3927,PAYLOAD,2024-02-13 19:52:28,15.08833303,0.0001609,53.2159,267.8251,108.2865,251.8302,0.00017178,2.446e-05,0.0,0 STARLINK-3927,1 52569U 22051AN  24044.82810819  .00002446  00000-0  17178-3 0  9991,2 52569  53.2159 267.8251 0001609 108.2865 251.8302 15.08833303 97697,6917.901,95.438,540.879,538.653,0.0
52569.0,STARLINK-3927,PAYLOAD,2024-02-13 21:27:51,15.08834905,0.000162,53.2162,267.528,107.4101,252.7068,0.00018657,2.682e-05,0.0,0 STARLINK-3927,1 52569U 22051AN  24044.89434781  .00002682  00000-0  18657-3 0  9993,2 52569  53.2162 267.5280 0001620 107.4101 252.7068 15.08834905 97639,6917.896,95.438,540.882,538.64,0.0
52569.0,STARLINK-3927,PAYLOAD,2024-02-14 00:38:37,15.08838076,0.0001571,53.2156,266.9322,108.0028,252.1136,0.00021388,3.117e-05,0.0,0 STARLINK-3927,1 52569U 22051AN  24045.02682618  .00003117  00000-0  21388-3 0  9992,2 52569  53.2156 266.9322 0001571 108.0028 252.1136 15.08838076 97657,6917.886,95.438,540.838,538.664,0.0
52569.0,STARLINK-3927,PAYLOAD,2024-02-14 21:18:39,15.08830603,0.0001332,53.2155,263.0657,88.8354,271.2791,7.8327e-05,9.59e-06,0.0,0 STARLINK-3927,1 52569U 22051AN  24045.88796162  .00000959  00000-0  78327-4 0  9993,2 52569  53.2155 263.0657 0001332  88.8354 271.2791 15.08830603 97788,6917.909,95.438,540.696,538.853,0.0
52569.0,STARLINK-3927,PAYLOAD,2024-02-15 14:47:54,15.0884126,0.0001358,53.2161,259.7936,75.0671,285.0472,4.4439e-05,4.19e-06,0.0,0 STARLINK-3927,1 52569U 22051AN  24046.61659992  .00000419  00000-0  44439-4 0  9992,2 52569  53.2161 259.7936 0001358  75.0671 285.0472 15.08841260 97897,6917.877,95.437,540.681,538.802,0.0
52569.0,STARLINK-3927,PAYLOAD,2024-02-15 19:34:03,15.08844827,0.0001372,53.2162,258.9036,88.5963,271.5186,0.00010009,1.306e-05,0.0,0 STARLINK-3927,1 52569U 22051AN  24046.81531624  .00001306  00000-0  10009-3 0  9996,2 52569  53.2162 258.9036 0001372  88.5963 271.5186 15.08844827 97994,6917.866,95.437,540.68,538.782,0.0
52569.0,STARLINK-3927,PAYLOAD,2024-02-15 21:09:26,15.08845909,0.0001411,53.2158,258.6076,87.9115,272.2039,0.00016111,2.277e-05,0.0,0 STARLINK-3927,1 52569U 22051AN  24046.88155579  .00002277  00000-0  16111-3 0  9992,2 52569  53.2158 258.6076 0001411  87.9115 272.2039 15.08845909 97937,6917.862,95.437,540.703,538.751,0.0
52569.0,STARLINK-3927,PAYLOAD,2024-02-16 06:41:45,15.08846227,0.0001404,53.2158,256.8235,86.2055,273.9098,0.00013851,1.917e-05,0.0,0 STARLINK-3927,1 52569U 22051AN  24047.27899505  .00001917  00000-0  13851-3 0  9998,2 52569  53.2158 256.8235 0001404  86.2055 273.9098 15.08846227 97994,6917.861,95.437,540.698,538.755,0.0
52569.0,STARLINK-3927,PAYLOAD,2024-02-16 19:24:50,15.0883997,0.0001454,53.2157,254.4449,83.2214,276.8943,9.9595e-05,1.297e-05,0.0,0 STARLINK-3927,1 52569U 22051AN  24047.80891850  .00001297  00000-0  99595-4 0  9993,2 52569  53.2157 254.4449 0001454  83.2214 276.8943 15.08839970 98149,6917.88,95.438,540.751,538.74,0.0
52569.0,STARLINK-3927,PAYLOAD,2024-02-17 06:32:32,15.08841029,0.0001599,53.2161,252.36,75.3786,284.7384,6.4681e-05,7.42e-06,0.0,0 STARLINK-3927,1 52569U 22051AN  24048.27259819  .00000742  00000-0  64681-4 0  9990,2 52569  53.2161 252.3600 0001599  75.3786 284.7384 15.08841029 98141,6917.877,95.437,540.848,538.636,0.0
52569.0,STARLINK-3927,PAYLOAD,2024-02-17 20:51:00,15.08842198,0.0001598,53.2162,249.6836,73.4695,286.6473,2.3134e-05,8e-07,0.0,0 STARLINK-3927,1 52569U 22051AN  24048.86875716  .00000080  00000-0  23134-4 0  9998,2 52569  53.2162 249.6836 0001598  73.4695 286.6473 15.08842198 98237,6917.874,95.437,540.844,538.633,0.0
52569.0,STARLINK-3927,PAYLOAD,2024-02-18 12:44:52,15.08839446,0.0001232,53.2156,246.7123,82.3189,277.7943,0.00010596,1.399e-05,0.0,0 STARLINK-3927,1 52569U 22051AN  24049.53115749  .00001399  00000-0  10596-3 0  9997,2 52569  53.2156 246.7123 0001232  82.3189 277.7943 15.08839446 98335,6917.882,95.438,540.599,538.895,0.0
